STARLINK-35565          
1 66803U 25278N   25348.83340278 -.01330995  00000+0 -74594-2 0  9996
2 66803  42.9969 239.2001 0001542 275.0961 210.0862 15.81282996  3387
STARLINK-36038          
1 66804U 25278P   25348.83340278 -.01363938  00000+0 -75224-2 0  9991
2 66804  42.9972 239.1940 0001552 268.2200 219.4230 15.81238965  3293
STARLINK-36049          
1 66805U 25278Q   25348.83340278 -.01378338  00000+0 -76271-2 0  9995
2 66805  42.9969 239.1824 0001521 277.7314 214.3824 15.81195443  3294
STARLINK-36069          
1 66806U 25278R   25348.83340278 -.01370105  00000+0 -75623-2 0  9990
2 66806  42.9971 239.1887 0001465 275.9925 213.7171 15.81234627  3085
STARLINK-36000          
1 66807U 25278S   25348.83340278 -.01392751  00000+0 -77353-2 0  9994
2 66807  42.9970 239.1713 0001565 272.7353 223.9104 15.81143418  3350
STARLINK-36071          
1 66808U 25278T   25348.83340278 -.01397519  00000+0 -77723-2 0  9993
2 66808  42.9971 239.1655 0001499 274.1752 224.6622 15.81124157  3297
STARLINK-35979          
1 66809U 25278U   25348.83340278 -.01417924  00000+0 -79477-2 0  9995
2 66809  42.9969 239.1472 0001468 270.7568 235.3050 15.80996249  3297
STARLINK-36046          
1 66810U 25278V   25348.83340278 -.01403602  00000+0 -78274-2 0  9999
2 66810  42.9973 239.1596 0001514 273.0348 228.2469 15.81077497  3061
STARLINK-36045          
1 66811U 25278W   25348.83340278 -.01411445  00000+0 -78945-2 0  9999
2 66811  42.9973 239.1533 0001522 267.8226 235.9234 15.81028918  3292
STARLINK-36054          
1 66812U 25278X   25348.83340278 -.01426214  00000+0 -80046-2 0  9995
2 66812  42.9973 239.1420 0001470 269.4898 238.7137 15.80983975  3298
STARLINK-36042          
1 66813U 25278Y   25348.83340278 -.01432476  00000+0 -80461-2 0  9994
2 66813  42.9973 239.1366 0001462 270.1324 240.1228 15.80979173  3295
STARLINK-35984          
1 66814U 25278Z   25348.83340278 -.01540313  00000+0 -88544-2 0  9995
2 66814  42.9971 239.0997 0001450 264.4451 260.2768 15.80692572  3384
