CCSDS_OMM_VERS = 2.0
CREATION_DATE  = 
ORIGINATOR     = 

OBJECT_NAME    = STARLINK-35565
OBJECT_ID      = 2025-278N
CENTER_NAME    = EARTH
REF_FRAME      = TEME
TIME_SYSTEM    = UTC
MEAN_ELEMENT_THEORY = SGP/SGP4

EPOCH          = 2025-12-14T20:00:06.000192
MEAN_MOTION    = 15.81282996
ECCENTRICITY   = .00015422
INCLINATION    = 42.9969
RA_OF_ASC_NODE = 239.2001
ARG_OF_PERICENTER = 275.0961
MEAN_ANOMALY   = 210.0862

EPHEMERIS_TYPE = 0
CLASSIFICATION_TYPE = U
NORAD_CAT_ID   = 66803
ELEMENT_SET_NO = 999
REV_AT_EPOCH   = 338
BSTAR          = -.74593636E-2
MEAN_MOTION_DOT = -.1330995E-1
MEAN_MOTION_DDOT = 0

CCSDS_OMM_VERS = 2.0
CREATION_DATE  = 
ORIGINATOR     = 

OBJECT_NAME    = STARLINK-36038
OBJECT_ID      = 2025-278P
CENTER_NAME    = EARTH
REF_FRAME      = TEME
TIME_SYSTEM    = UTC
MEAN_ELEMENT_THEORY = SGP/SGP4

EPOCH          = 2025-12-14T20:00:06.000192
MEAN_MOTION    = 15.81238965
ECCENTRICITY   = .00015521
INCLINATION    = 42.9972
RA_OF_ASC_NODE = 239.1940
ARG_OF_PERICENTER = 268.2200
MEAN_ANOMALY   = 219.4230

EPHEMERIS_TYPE = 0
CLASSIFICATION_TYPE = U
NORAD_CAT_ID   = 66804
ELEMENT_SET_NO = 999
REV_AT_EPOCH   = 329
BSTAR          = -.75223619E-2
MEAN_MOTION_DOT = -.1363938E-1
MEAN_MOTION_DDOT = 0

CCSDS_OMM_VERS = 2.0
CREATION_DATE  = 
ORIGINATOR     = 

OBJECT_NAME    = STARLINK-36049
OBJECT_ID      = 2025-278Q
CENTER_NAME    = EARTH
REF_FRAME      = TEME
TIME_SYSTEM    = UTC
MEAN_ELEMENT_THEORY = SGP/SGP4

EPOCH          = 2025-12-14T20:00:06.000192
MEAN_MOTION    = 15.81195443
ECCENTRICITY   = .0001521
INCLINATION    = 42.9969
RA_OF_ASC_NODE = 239.1824
ARG_OF_PERICENTER = 277.7314
MEAN_ANOMALY   = 214.3824

EPHEMERIS_TYPE = 0
CLASSIFICATION_TYPE = U
NORAD_CAT_ID   = 66805
ELEMENT_SET_NO = 999
REV_AT_EPOCH   = 329
BSTAR          = -.76270776E-2
MEAN_MOTION_DOT = -.1378338E-1
MEAN_MOTION_DDOT = 0

CCSDS_OMM_VERS = 2.0
CREATION_DATE  = 
ORIGINATOR     = 

OBJECT_NAME    = STARLINK-36069
OBJECT_ID      = 2025-278R
CENTER_NAME    = EARTH
REF_FRAME      = TEME
TIME_SYSTEM    = UTC
MEAN_ELEMENT_THEORY = SGP/SGP4

EPOCH          = 2025-12-14T20:00:06.000192
MEAN_MOTION    = 15.81234627
ECCENTRICITY   = .00014651
INCLINATION    = 42.9971
RA_OF_ASC_NODE = 239.1887
ARG_OF_PERICENTER = 275.9925
MEAN_ANOMALY   = 213.7171

EPHEMERIS_TYPE = 0
CLASSIFICATION_TYPE = U
NORAD_CAT_ID   = 66806
ELEMENT_SET_NO = 999
REV_AT_EPOCH   = 308
BSTAR          = -.75623381E-2
MEAN_MOTION_DOT = -.1370105E-1
MEAN_MOTION_DDOT = 0

CCSDS_OMM_VERS = 2.0
CREATION_DATE  = 
ORIGINATOR     = 

OBJECT_NAME    = STARLINK-36000
OBJECT_ID      = 2025-278S
CENTER_NAME    = EARTH
REF_FRAME      = TEME
TIME_SYSTEM    = UTC
MEAN_ELEMENT_THEORY = SGP/SGP4

EPOCH          = 2025-12-14T20:00:06.000192
MEAN_MOTION    = 15.81143418
ECCENTRICITY   = .00015652
INCLINATION    = 42.9970
RA_OF_ASC_NODE = 239.1713
ARG_OF_PERICENTER = 272.7353
MEAN_ANOMALY   = 223.9104

EPHEMERIS_TYPE = 0
CLASSIFICATION_TYPE = U
NORAD_CAT_ID   = 66807
ELEMENT_SET_NO = 999
REV_AT_EPOCH   = 335
BSTAR          = -.77353003E-2
MEAN_MOTION_DOT = -.1392751E-1
MEAN_MOTION_DDOT = 0

CCSDS_OMM_VERS = 2.0
CREATION_DATE  = 
ORIGINATOR     = 

OBJECT_NAME    = STARLINK-36071
OBJECT_ID      = 2025-278T
CENTER_NAME    = EARTH
REF_FRAME      = TEME
TIME_SYSTEM    = UTC
MEAN_ELEMENT_THEORY = SGP/SGP4

EPOCH          = 2025-12-14T20:00:06.000192
MEAN_MOTION    = 15.81124157
ECCENTRICITY   = .00014993
INCLINATION    = 42.9971
RA_OF_ASC_NODE = 239.1655
ARG_OF_PERICENTER = 274.1752
MEAN_ANOMALY   = 224.6622

EPHEMERIS_TYPE = 0
CLASSIFICATION_TYPE = U
NORAD_CAT_ID   = 66808
ELEMENT_SET_NO = 999
REV_AT_EPOCH   = 329
BSTAR          = -.77723255E-2
MEAN_MOTION_DOT = -.1397519E-1
MEAN_MOTION_DDOT = 0

CCSDS_OMM_VERS = 2.0
CREATION_DATE  = 
ORIGINATOR     = 

OBJECT_NAME    = STARLINK-35979
OBJECT_ID      = 2025-278U
CENTER_NAME    = EARTH
REF_FRAME      = TEME
TIME_SYSTEM    = UTC
MEAN_ELEMENT_THEORY = SGP/SGP4

EPOCH          = 2025-12-14T20:00:06.000192
MEAN_MOTION    = 15.80996249
ECCENTRICITY   = .00014687
INCLINATION    = 42.9969
RA_OF_ASC_NODE = 239.1472
ARG_OF_PERICENTER = 270.7568
MEAN_ANOMALY   = 235.3050

EPHEMERIS_TYPE = 0
CLASSIFICATION_TYPE = U
NORAD_CAT_ID   = 66809
ELEMENT_SET_NO = 999
REV_AT_EPOCH   = 329
BSTAR          = -.7947668E-2
MEAN_MOTION_DOT = -.1417924E-1
MEAN_MOTION_DDOT = 0

CCSDS_OMM_VERS = 2.0
CREATION_DATE  = 
ORIGINATOR     = 

OBJECT_NAME    = STARLINK-36046
OBJECT_ID      = 2025-278V
CENTER_NAME    = EARTH
REF_FRAME      = TEME
TIME_SYSTEM    = UTC
MEAN_ELEMENT_THEORY = SGP/SGP4

EPOCH          = 2025-12-14T20:00:06.000192
MEAN_MOTION    = 15.81077497
ECCENTRICITY   = .00015149
INCLINATION    = 42.9973
RA_OF_ASC_NODE = 239.1596
ARG_OF_PERICENTER = 273.0348
MEAN_ANOMALY   = 228.2469

EPHEMERIS_TYPE = 0
CLASSIFICATION_TYPE = U
NORAD_CAT_ID   = 66810
ELEMENT_SET_NO = 999
REV_AT_EPOCH   = 306
BSTAR          = -.78273916E-2
MEAN_MOTION_DOT = -.1403602E-1
MEAN_MOTION_DDOT = 0

CCSDS_OMM_VERS = 2.0
CREATION_DATE  = 
ORIGINATOR     = 

OBJECT_NAME    = STARLINK-36045
OBJECT_ID      = 2025-278W
CENTER_NAME    = EARTH
REF_FRAME      = TEME
TIME_SYSTEM    = UTC
MEAN_ELEMENT_THEORY = SGP/SGP4

EPOCH          = 2025-12-14T20:00:06.000192
MEAN_MOTION    = 15.81028918
ECCENTRICITY   = .0001522
INCLINATION    = 42.9973
RA_OF_ASC_NODE = 239.1533
ARG_OF_PERICENTER = 267.8226
MEAN_ANOMALY   = 235.9234

EPHEMERIS_TYPE = 0
CLASSIFICATION_TYPE = U
NORAD_CAT_ID   = 66811
ELEMENT_SET_NO = 999
REV_AT_EPOCH   = 329
BSTAR          = -.78945064E-2
MEAN_MOTION_DOT = -.1411445E-1
MEAN_MOTION_DDOT = 0

CCSDS_OMM_VERS = 2.0
CREATION_DATE  = 
ORIGINATOR     = 

OBJECT_NAME    = STARLINK-36054
OBJECT_ID      = 2025-278X
CENTER_NAME    = EARTH
REF_FRAME      = TEME
TIME_SYSTEM    = UTC
MEAN_ELEMENT_THEORY = SGP/SGP4

EPOCH          = 2025-12-14T20:00:06.000192
MEAN_MOTION    = 15.80983975
ECCENTRICITY   = .00014705
INCLINATION    = 42.9973
RA_OF_ASC_NODE = 239.1420
ARG_OF_PERICENTER = 269.4898
MEAN_ANOMALY   = 238.7137

EPHEMERIS_TYPE = 0
CLASSIFICATION_TYPE = U
NORAD_CAT_ID   = 66812
ELEMENT_SET_NO = 999
REV_AT_EPOCH   = 329
BSTAR          = -.80046209E-2
MEAN_MOTION_DOT = -.1426214E-1
MEAN_MOTION_DDOT = 0

CCSDS_OMM_VERS = 2.0
CREATION_DATE  = 
ORIGINATOR     = 

OBJECT_NAME    = STARLINK-36042
OBJECT_ID      = 2025-278Y
CENTER_NAME    = EARTH
REF_FRAME      = TEME
TIME_SYSTEM    = UTC
MEAN_ELEMENT_THEORY = SGP/SGP4

EPOCH          = 2025-12-14T20:00:06.000192
MEAN_MOTION    = 15.80979173
ECCENTRICITY   = .00014626
INCLINATION    = 42.9973
RA_OF_ASC_NODE = 239.1366
ARG_OF_PERICENTER = 270.1324
MEAN_ANOMALY   = 240.1228

EPHEMERIS_TYPE = 0
CLASSIFICATION_TYPE = U
NORAD_CAT_ID   = 66813
ELEMENT_SET_NO = 999
REV_AT_EPOCH   = 329
BSTAR          = -.804609E-2
MEAN_MOTION_DOT = -.1432476E-1
MEAN_MOTION_DDOT = 0

CCSDS_OMM_VERS = 2.0
CREATION_DATE  = 
ORIGINATOR     = 

OBJECT_NAME    = STARLINK-35984
OBJECT_ID      = 2025-278Z
CENTER_NAME    = EARTH
REF_FRAME      = TEME
TIME_SYSTEM    = UTC
MEAN_ELEMENT_THEORY = SGP/SGP4

EPOCH          = 2025-12-14T20:00:06.000192
MEAN_MOTION    = 15.80692572
ECCENTRICITY   = .00014503
INCLINATION    = 42.9971
RA_OF_ASC_NODE = 239.0997
ARG_OF_PERICENTER = 264.4451
MEAN_ANOMALY   = 260.2768

EPHEMERIS_TYPE = 0
CLASSIFICATION_TYPE = U
NORAD_CAT_ID   = 66814
ELEMENT_SET_NO = 999
REV_AT_EPOCH   = 338
BSTAR          = -.88543592E-2
MEAN_MOTION_DOT = -.1540313E-1
MEAN_MOTION_DDOT = 0

